GOES 1 [-]              
1 08366U 75100A   09189.39708099 -.00000244  00000-0  10000-3 0  8767
2 08366  14.3598 347.6612 0002665 247.2177 112.7831  1.00286414123165
GOES 2 [-]              
1 10061U 77048A   09185.63738524  .00000011  00000-0  10000-3 0  9070
2 10061  14.6535 356.1487 0016733 251.2609 108.5655  0.99398697 61976
GOES 3 [P]              
1 10953U 78062A   09189.49299311 -.00000118  00000-0  10000-3 0  5582
2 10953  14.3678 359.9232 0002579   9.5291 350.5061  1.00266037 66884
GOES 4 [-]              
1 11964U 80074A   09187.94654488 -.00000111  00000-0  10000-3 0  1342
2 11964  14.7235   3.6273 0035355 295.2827  64.3721  0.99227770 66224
GOES 5 [-]              
1 12472U 81049A   09189.45850809 -.00000255  00000-0  10000-3 0  1678
2 12472  13.7047  14.1176 0001323 180.8571 179.1783  1.00227664 60920
GOES 6 [-]              
1 14050U 83041A   09186.47364312 -.00000273  00000-0  10000-3 0  1696
2 14050  13.3626  19.2350 0001315  40.9084 319.1201  1.00271650153994
GOES 7 [-]              
1 17561U 87022A   09190.52613698  .00000061  00000-0  10000-3 0   293
2 17561  12.1476  36.9965 0002702 183.4588  80.3448  1.00288157 65133
GOES 8 [-]              
1 23051U 94022A   09188.77002491  .00000056  00000-0  10000-3 0  8550
2 23051   5.8019  73.3508 0005362 164.0970 195.7881  0.98904168 62928
GOES 9 [P]              
1 23581U 95025A   09187.04313685 -.00000225  00000-0  10000-3 0  1362
2 23581   5.3576  70.3782 0004970 323.0110  36.7792  0.98801904 51610
GOES 10 [+]             
1 24786U 97019A   09191.11701735 -.00000280  00000-0  10000-3 0  9959
2 24786   3.6892  74.3125 0002167  44.4468 151.4223  1.00277429 44733
GOES 11 [+]             
1 26352U 00022A   09190.31553152  .00000000  00000-0  10000-3 0  3949
2 26352   0.4263 262.7636 0001726 267.8651  94.7660  1.00266704 33620
GOES 12 [+]             
1 26871U 01031A   09190.12492279 -.00000246  00000-0  10000-3 0  1319
2 26871   0.0798  94.3065 0004852 353.8292 169.3389  1.00270491 29226
GOES 13 [S]             
1 29155U 06018A   09190.38165110 -.00000081  00000-0  10000-3 0  6666
2 29155   0.1088 229.4652 0002007 307.7971 142.0191  1.00271750 11478
GOES 14 [S]             
1 35491U 09033A   09190.70977696 -.00000180  00000-0  10000-3 0   284
2 35491   0.5061 264.7697 0001184 265.6012 283.3512  1.00295644   154
